      2.10          N: GNSS NAV DATA                        RINEX VERSION / TYPE
fic2rin                                 07/09/2023 00:17:54 PGM / RUN BY / DATE
                                                            END OF HEADER
6  23  7  8  1 59 44.0  .579859130085D-03 -.318323145621D-11  .000000000000D+00
     .100000000000D+02  .862500000000D+02  .357479176157D-08  .148856217446D+01
     .451877713203D-05  .268727249932D-02  .876188278198D-05  .515370270157D+04
     .525584000000D+06  .106170773506D-06  .163257097731D+01  .875443220139D-07
     .989097597782D+00  .224750000000D+03 -.749837579985D+00 -.773389357628D-08
     .366086677551D-09  .100000000000D+01  .226900000000D+04  .000000000000D+00
     .240000000000D+01  .000000000000D+00  .372529029846D-08  .100000000000D+02
     .518400000000D+06  .400000000000D+01
22 23  7  9  0  0  0.0  .509939156473D-03  .557065504836D-11  .000000000000D+00
     .340000000000D+02 -.744375000000D+02  .453126017375D-08  .231105776792D+01
    -.400654971600D-05  .143832395552D-01  .832974910736D-05  .515365468597D+04
     .000000000000D+00  .670552253723D-07 -.260399956025D+01 -.203028321266D-06
     .963015917456D+00  .216468750000D+03 -.179929160820D+01 -.784175521201D-08
    -.264653881039D-09  .100000000000D+01  .227000000000D+04  .000000000000D+00
     .240000000000D+01  .630000000000D+02 -.838190317154D-08  .340000000000D+02
    -.720000000000D+04  .400000000000D+01
3  23  7  9  0  0  0.0 -.240277964622D-03  .153477230924D-10  .000000000000D+00
     .360000000000D+02  .937500000000D-01  .454340353671D-08 -.889804901934D+00
     .255182385445D-06  .501399091445D-02  .468827784061D-05  .515363444328D+04
     .000000000000D+00  .428408384323D-07  .255032621651D+01  .409781932831D-07
     .979776122237D+00  .303343750000D+03  .105921376768D+01 -.825820113008D-08
     .317156067966D-09  .100000000000D+01  .227000000000D+04  .000000000000D+00
     .240000000000D+01  .000000000000D+00  .186264514923D-08  .360000000000D+02
    -.564000000000D+04  .400000000000D+01
6  23  7  8 23 59 44.0  .579605344683D-03 -.318323145621D-11  .000000000000D+00
     .200000000000D+01  .338750000000D+02  .366122393324D-08  .475587107209D+00
     .190176069736D-05  .268716074061D-02  .101979821920D-04  .515370281601D+04
     .604784000000D+06  .186264514923D-08  .163195582318D+01 -.521540641785D-07
     .989111202920D+00  .192656250000D+03 -.751488425984D+00 -.779282460242D-08
     .297155234851D-09  .100000000000D+01  .226900000000D+04  .000000000000D+00
     .240000000000D+01  .000000000000D+00  .372529029846D-08  .200000000000D+01
     .601320000000D+06  .400000000000D+01
24 23  7  8 23 59 44.0 -.251548364758D-03 -.125055521494D-10  .000000000000D+00
     .410000000000D+02  .675000000000D+01  .527593404954D-08  .603839215870D+00
     .668689608574D-06  .140243669739D-01  .108350068331D-04  .515364831543D+04
     .604784000000D+06 -.111758708954D-06 -.160866906540D+01  .135973095894D-06
     .933597154217D+00  .156875000000D+03  .900716035467D+00 -.854999899892D-08
    -.102504269714D-09  .100000000000D+01  .226900000000D+04  .000000000000D+00
     .240000000000D+01  .000000000000D+00  .279396772385D-08  .410000000000D+02
     .601410000000D+06  .400000000000D+01
